{
    "links": {
        "self": "http://www.neowsapp.com/rest/v1/neo/3749350?api_key=iIulBulltgU6a56xZRHN4H3l9WmuAYTsLGpBGhQ2"
    },
    "id": "3749350",
    "neo_reference_id": "3749350",
    "name": "(2016 GG134)",
    "designation": "2016 GG134",
    "nasa_jpl_url": "http://ssd.jpl.nasa.gov/sbdb.cgi?sstr=3749350",
    "absolute_magnitude_h": 25.5,
    "estimated_diameter": {
        "kilometers": {
            "estimated_diameter_min": 0.0211132445,
            "estimated_diameter_max": 0.0472106499
        },
        "meters": {
            "estimated_diameter_min": 21.113244479,
            "estimated_diameter_max": 47.2106498806
        },
        "miles": {
            "estimated_diameter_min": 0.0131191578,
            "estimated_diameter_max": 0.0293353287
        },
        "feet": {
            "estimated_diameter_min": 69.2691770164,
            "estimated_diameter_max": 154.8905885541
        }
    },
    "is_potentially_hazardous_asteroid": false,
    "close_approach_data": [
        {
            "close_approach_date": "2013-05-01",
            "close_approach_date_full": "2013-May-01 08:35",
            "epoch_date_close_approach": 1367397300000,
            "relative_velocity": {
                "kilometers_per_second": "16.4096959201",
                "kilometers_per_hour": "59074.9053125159",
                "miles_per_hour": "36706.8488037685"
            },
            "miss_distance": {
                "astronomical": "0.3188421066",
                "lunar": "124.0295794674",
                "kilometers": "47698100.013672942",
                "miles": "29638225.0057409196"
            },
            "orbiting_body": "Earth"
        },
        {
            "close_approach_date": "2016-04-02",
            "close_approach_date_full": "2016-Apr-02 23:48",
            "epoch_date_close_approach": 1459640880000,
            "relative_velocity": {
                "kilometers_per_second": "8.4205316366",
                "kilometers_per_hour": "30313.9138917739",
                "miles_per_hour": "18835.8872179192"
            },
            "miss_distance": {
                "astronomical": "0.0466541184",
                "lunar": "18.1484520576",
                "kilometers": "6979356.739367808",
                "miles": "4336771.1790914304"
            },
            "orbiting_body": "Earth"
        }
    ],
    "orbital_data": {
        "orbit_id": "6",
        "orbit_determination_date": "2017-04-06 08:26:45",
        "first_observation_date": "2016-03-31",
        "last_observation_date": "2016-04-17",
        "data_arc_in_days": 17,
        "observations_used": 18,
        "orbit_uncertainty": "8",
        "minimum_orbit_intersection": ".0363534",
        "jupiter_tisserand_invariant": "3.601",
        "epoch_osculation": "2457482.5",
        "eccentricity": ".5064267447426903",
        "semi_major_axis": "2.060554724846688",
        "inclination": "7.640444027062131",
        "ascending_node_longitude": "195.1762468320469",
        "orbital_period": "1080.375324818782",
        "perihelion_distance": "1.01703470317841",
        "perihelion_argument": "336.7547268519166",
        "aphelion_distance": "3.104074746514967",
        "perihelion_time": "2457464.264190353352",
        "mean_anomaly": "6.076491495114855",
        "mean_motion": ".3332175325833037",
        "equinox": "J2000",
        "orbit_class": {
            "orbit_class_type": "AMO",
            "orbit_class_description": "Near-Earth asteroid orbits similar to that of 1221 Amor",
            "orbit_class_range": "1.017 AU < q (perihelion) < 1.3 AU"
        }
    },
    "is_sentry_object": false
}